[{"OBJECT_NAME":"ONEWEB-0247","OBJECT_ID":"2021-045L","EPOCH":"2025-11-28T04:53:33.440064","MEAN_MOTION":13.15547761,"ECCENTRICITY":0.0002913,"INCLINATION":87.8978,"RA_OF_ASC_NODE":299.3261,"ARG_OF_PERICENTER":87.4739,"MEAN_ANOMALY":272.6724,"EPHEMERIS_TYPE":0,"CLASSIFICATION_TYPE":"U","NORAD_CAT_ID":48777,"ELEMENT_SET_NO":999,"REV_AT_EPOCH":21798,"BSTAR":0.00042684,"MEAN_MOTION_DOT":1.74e-6,"MEAN_MOTION_DDOT":0},{"OBJECT_NAME":"ONEWEB-0245","OBJECT_ID":"2021-045M","EPOCH":"2025-11-28T04:46:42.610656","MEAN_MOTION":13.15547488,"ECCENTRICITY":0.000193,"INCLINATION":87.8988,"RA_OF_ASC_NODE":299.2908,"ARG_OF_PERICENTER":74.3245,"MEAN_ANOMALY":285.8098,"EPHEMERIS_TYPE":0,"CLASSIFICATION_TYPE":"U","NORAD_CAT_ID":48778,"ELEMENT_SET_NO":999,"REV_AT_EPOCH":21795,"BSTAR":0.00016619,"MEAN_MOTION_DOT":7.5e-7,"MEAN_MOTION_DDOT":0},{"OBJECT_NAME":"ONEWEB-0229","OBJECT_ID":"2021-045N","EPOCH":"2025-11-28T04:39:51.585120","MEAN_MOTION":13.15547723,"ECCENTRICITY":0.0002017,"INCLINATION":87.8979,"RA_OF_ASC_NODE":299.2908,"ARG_OF_PERICENTER":86.0006,"MEAN_ANOMALY":274.1355,"EPHEMERIS_TYPE":0,"CLASSIFICATION_TYPE":"U","NORAD_CAT_ID":48779,"ELEMENT_SET_NO":999,"REV_AT_EPOCH":21798,"BSTAR":4.7843e-5,"MEAN_MOTION_DOT":3.1e-7,"MEAN_MOTION_DDOT":0},{"OBJECT_NAME":"ONEWEB-0228","OBJECT_ID":"2021-045P","EPOCH":"2025-11-28T03:38:27.707712","MEAN_MOTION":13.15548005,"ECCENTRICITY":0.0002021,"INCLINATION":87.8985,"RA_OF_ASC_NODE":299.2822,"ARG_OF_PERICENTER":82.9732,"MEAN_ANOMALY":277.1628,"EPHEMERIS_TYPE":0,"CLASSIFICATION_TYPE":"U","NORAD_CAT_ID":48780,"ELEMENT_SET_NO":999,"REV_AT_EPOCH":21789,"BSTAR":0.0001912,"MEAN_MOTION_DOT":8.5e-7,"MEAN_MOTION_DDOT":0},{"OBJECT_NAME":"ONEWEB-0232","OBJECT_ID":"2021-045Q","EPOCH":"2025-11-27T21:33:11.325600","MEAN_MOTION":13.15546608,"ECCENTRICITY":0.0001914,"INCLINATION":87.8991,"RA_OF_ASC_NODE":299.3236,"ARG_OF_PERICENTER":84.4992,"MEAN_ANOMALY":275.6357,"EPHEMERIS_TYPE":0,"CLASSIFICATION_TYPE":"U","NORAD_CAT_ID":48781,"ELEMENT_SET_NO":999,"REV_AT_EPOCH":21818,"BSTAR":0.00036114,"MEAN_MOTION_DOT":1.49e-6,"MEAN_MOTION_DDOT":0},{"OBJECT_NAME":"ONEWEB-0231","OBJECT_ID":"2021-045R","EPOCH":"2025-11-27T21:01:14.702304","MEAN_MOTION":13.1554762,"ECCENTRICITY":0.0002179,"INCLINATION":87.8973,"RA_OF_ASC_NODE":299.373,"ARG_OF_PERICENTER":84.2866,"MEAN_ANOMALY":275.8513,"EPHEMERIS_TYPE":0,"CLASSIFICATION_TYPE":"U","NORAD_CAT_ID":48782,"ELEMENT_SET_NO":999,"REV_AT_EPOCH":21787,"BSTAR":-2.384e-6,"MEAN_MOTION_DOT":1.2e-7,"MEAN_MOTION_DDOT":0},{"OBJECT_NAME":"ONEWEB-0234","OBJECT_ID":"2021-045S","EPOCH":"2025-11-28T03:24:22.004640","MEAN_MOTION":13.15547324,"ECCENTRICITY":0.0001517,"INCLINATION":87.8978,"RA_OF_ASC_NODE":299.2931,"ARG_OF_PERICENTER":57.302,"MEAN_ANOMALY":302.8256,"EPHEMERIS_TYPE":0,"CLASSIFICATION_TYPE":"U","NORAD_CAT_ID":48783,"ELEMENT_SET_NO":999,"REV_AT_EPOCH":21804,"BSTAR":0.00031559,"MEAN_MOTION_DOT":1.32e-6,"MEAN_MOTION_DDOT":0},{"OBJECT_NAME":"ONEWEB-0238","OBJECT_ID":"2021-045T","EPOCH":"2025-11-28T03:24:45.720576","MEAN_MOTION":13.15549917,"ECCENTRICITY":0.0001678,"INCLINATION":87.8978,"RA_OF_ASC_NODE":299.2871,"ARG_OF_PERICENTER":74.857,"MEAN_ANOMALY":285.2746,"EPHEMERIS_TYPE":0,"CLASSIFICATION_TYPE":"U","NORAD_CAT_ID":48784,"ELEMENT_SET_NO":999,"REV_AT_EPOCH":21794,"BSTAR":0.00041894,"MEAN_MOTION_DOT":1.71e-6,"MEAN_MOTION_DDOT":0},{"OBJECT_NAME":"ONEWEB-0240","OBJECT_ID":"2021-045U","EPOCH":"2025-11-27T20:37:17.630976","MEAN_MOTION":13.15549426,"ECCENTRICITY":0.0002148,"INCLINATION":87.8995,"RA_OF_ASC_NODE":299.3366,"ARG_OF_PERICENTER":75.6901,"MEAN_ANOMALY":284.4468,"EPHEMERIS_TYPE":0,"CLASSIFICATION_TYPE":"U","NORAD_CAT_ID":48785,"ELEMENT_SET_NO":999,"REV_AT_EPOCH":21793,"BSTAR":-0.00022956,"MEAN_MOTION_DOT":-7.4e-7,"MEAN_MOTION_DDOT":0},{"OBJECT_NAME":"ONEWEB-0246","OBJECT_ID":"2021-045V","EPOCH":"2025-11-28T03:47:23.383392","MEAN_MOTION":13.15549474,"ECCENTRICITY":0.0002025,"INCLINATION":87.8988,"RA_OF_ASC_NODE":299.2882,"ARG_OF_PERICENTER":86.5908,"MEAN_ANOMALY":273.5454,"EPHEMERIS_TYPE":0,"CLASSIFICATION_TYPE":"U","NORAD_CAT_ID":48786,"ELEMENT_SET_NO":999,"REV_AT_EPOCH":21784,"BSTAR":4.355e-5,"MEAN_MOTION_DOT":2.9e-7,"MEAN_MOTION_DDOT":0},{"OBJECT_NAME":"ONEWEB-0210","OBJECT_ID":"2021-045W","EPOCH":"2025-11-28T05:00:24.431040","MEAN_MOTION":13.15548876,"ECCENTRICITY":0.0002491,"INCLINATION":87.8982,"RA_OF_ASC_NODE":299.2768,"ARG_OF_PERICENTER":91.1358,"MEAN_ANOMALY":269.0057,"EPHEMERIS_TYPE":0,"CLASSIFICATION_TYPE":"U","NORAD_CAT_ID":48787,"ELEMENT_SET_NO":999,"REV_AT_EPOCH":21789,"BSTAR":0.00026821,"MEAN_MOTION_DOT":1.14e-6,"MEAN_MOTION_DDOT":0},{"OBJECT_NAME":"ONEWEB-0214","OBJECT_ID":"2021-045X","EPOCH":"2025-11-28T03:23:24.360288","MEAN_MOTION":13.15550835,"ECCENTRICITY":0.0002185,"INCLINATION":87.8998,"RA_OF_ASC_NODE":299.2802,"ARG_OF_PERICENTER":92.7851,"MEAN_ANOMALY":267.3529,"EPHEMERIS_TYPE":0,"CLASSIFICATION_TYPE":"U","NORAD_CAT_ID":48788,"ELEMENT_SET_NO":999,"REV_AT_EPOCH":21785,"BSTAR":0.00038172,"MEAN_MOTION_DOT":1.57e-6,"MEAN_MOTION_DDOT":0},{"OBJECT_NAME":"ONEWEB-0221","OBJECT_ID":"2021-045Y","EPOCH":"2025-11-28T03:33:41.721984","MEAN_MOTION":13.15548582,"ECCENTRICITY":0.0002114,"INCLINATION":87.8985,"RA_OF_ASC_NODE":299.2953,"ARG_OF_PERICENTER":81.1613,"MEAN_ANOMALY":278.9757,"EPHEMERIS_TYPE":0,"CLASSIFICATION_TYPE":"U","NORAD_CAT_ID":48789,"ELEMENT_SET_NO":999,"REV_AT_EPOCH":21794,"BSTAR":0.000319,"MEAN_MOTION_DOT":1.33e-6,"MEAN_MOTION_DDOT":0},{"OBJECT_NAME":"ONEWEB-0213","OBJECT_ID":"2021-045Z","EPOCH":"2025-11-27T21:49:10.024320","MEAN_MOTION":13.15549684,"ECCENTRICITY":0.0002163,"INCLINATION":87.8975,"RA_OF_ASC_NODE":299.3518,"ARG_OF_PERICENTER":83.933,"MEAN_ANOMALY":276.2046,"EPHEMERIS_TYPE":0,"CLASSIFICATION_TYPE":"U","NORAD_CAT_ID":48790,"ELEMENT_SET_NO":999,"REV_AT_EPOCH":21797,"BSTAR":0.00036461,"MEAN_MOTION_DOT":1.5e-6,"MEAN_MOTION_DDOT":0},{"OBJECT_NAME":"ONEWEB-0212","OBJECT_ID":"2021-045AA","EPOCH":"2025-11-28T04:34:09.535296","MEAN_MOTION":13.15550759,"ECCENTRICITY":0.0001843,"INCLINATION":87.8987,"RA_OF_ASC_NODE":299.2843,"ARG_OF_PERICENTER":80.7876,"MEAN_ANOMALY":279.3462,"EPHEMERIS_TYPE":0,"CLASSIFICATION_TYPE":"U","NORAD_CAT_ID":48791,"ELEMENT_SET_NO":999,"REV_AT_EPOCH":21800,"BSTAR":6.0125e-5,"MEAN_MOTION_DOT":3.5e-7,"MEAN_MOTION_DDOT":0},{"OBJECT_NAME":"ONEWEB-0227","OBJECT_ID":"2021-045AB","EPOCH":"2025-11-28T04:32:59.650656","MEAN_MOTION":13.1555676,"ECCENTRICITY":0.0002097,"INCLINATION":87.8972,"RA_OF_ASC_NODE":299.296,"ARG_OF_PERICENTER":81.9256,"MEAN_ANOMALY":278.2112,"EPHEMERIS_TYPE":0,"CLASSIFICATION_TYPE":"U","NORAD_CAT_ID":48792,"ELEMENT_SET_NO":999,"REV_AT_EPOCH":21795,"BSTAR":0.0022216,"MEAN_MOTION_DOT":8.49e-6,"MEAN_MOTION_DDOT":0},{"OBJECT_NAME":"ONEWEB-0226","OBJECT_ID":"2021-045AC","EPOCH":"2025-11-27T21:05:48.509088","MEAN_MOTION":13.15547855,"ECCENTRICITY":0.0002179,"INCLINATION":87.8973,"RA_OF_ASC_NODE":299.367,"ARG_OF_PERICENTER":87.2471,"MEAN_ANOMALY":272.8909,"EPHEMERIS_TYPE":0,"CLASSIFICATION_TYPE":"U","NORAD_CAT_ID":48793,"ELEMENT_SET_NO":999,"REV_AT_EPOCH":21788,"BSTAR":-0.0001808,"MEAN_MOTION_DOT":-5.5e-7,"MEAN_MOTION_DDOT":0},{"OBJECT_NAME":"ONEWEB-0224","OBJECT_ID":"2021-045AD","EPOCH":"2025-11-28T03:31:25.222080","MEAN_MOTION":13.15548903,"ECCENTRICITY":0.0002308,"INCLINATION":87.8977,"RA_OF_ASC_NODE":299.3488,"ARG_OF_PERICENTER":59.8103,"MEAN_ANOMALY":300.3256,"EPHEMERIS_TYPE":0,"CLASSIFICATION_TYPE":"U","NORAD_CAT_ID":48794,"ELEMENT_SET_NO":999,"REV_AT_EPOCH":21784,"BSTAR":0.00052529,"MEAN_MOTION_DOT":2.11e-6,"MEAN_MOTION_DDOT":0},{"OBJECT_NAME":"ONEWEB-0233","OBJECT_ID":"2021-045AE","EPOCH":"2025-11-28T03:38:03.460416","MEAN_MOTION":13.15548614,"ECCENTRICITY":0.0002186,"INCLINATION":87.8974,"RA_OF_ASC_NODE":299.3587,"ARG_OF_PERICENTER":78.7064,"MEAN_ANOMALY":281.4312,"EPHEMERIS_TYPE":0,"CLASSIFICATION_TYPE":"U","NORAD_CAT_ID":48795,"ELEMENT_SET_NO":999,"REV_AT_EPOCH":21786,"BSTAR":0.00014358,"MEAN_MOTION_DOT":6.7e-7,"MEAN_MOTION_DDOT":0},{"OBJECT_NAME":"ONEWEB-0190","OBJECT_ID":"2021-045AF","EPOCH":"2025-11-28T05:09:31.798368","MEAN_MOTION":13.1554754,"ECCENTRICITY":0.0002644,"INCLINATION":87.8976,"RA_OF_ASC_NODE":299.3078,"ARG_OF_PERICENTER":82.6128,"MEAN_ANOMALY":277.5302,"EPHEMERIS_TYPE":0,"CLASSIFICATION_TYPE":"U","NORAD_CAT_ID":48796,"ELEMENT_SET_NO":999,"REV_AT_EPOCH":21794,"BSTAR":0.00020967,"MEAN_MOTION_DOT":9.2e-7,"MEAN_MOTION_DDOT":0},{"OBJECT_NAME":"ONEWEB-0236","OBJECT_ID":"2021-045AG","EPOCH":"2025-11-28T03:45:06.265728","MEAN_MOTION":13.15548953,"ECCENTRICITY":0.0001761,"INCLINATION":87.8974,"RA_OF_ASC_NODE":299.3308,"ARG_OF_PERICENTER":80.5675,"MEAN_ANOMALY":279.5654,"EPHEMERIS_TYPE":0,"CLASSIFICATION_TYPE":"U","NORAD_CAT_ID":48797,"ELEMENT_SET_NO":999,"REV_AT_EPOCH":21782,"BSTAR":-3.4827e-5,"MEAN_MOTION_DOT":0,"MEAN_MOTION_DDOT":0},{"OBJECT_NAME":"ONEWEB-0248","OBJECT_ID":"2021-045AH","EPOCH":"2025-11-27T20:45:16.147008","MEAN_MOTION":13.15549134,"ECCENTRICITY":0.0002336,"INCLINATION":87.899,"RA_OF_ASC_NODE":299.3512,"ARG_OF_PERICENTER":72.7272,"MEAN_ANOMALY":287.4114,"EPHEMERIS_TYPE":0,"CLASSIFICATION_TYPE":"U","NORAD_CAT_ID":48798,"ELEMENT_SET_NO":999,"REV_AT_EPOCH":21794,"BSTAR":-8.3643e-5,"MEAN_MOTION_DOT":-1.9e-7,"MEAN_MOTION_DDOT":0},{"OBJECT_NAME":"ONEWEB-0225","OBJECT_ID":"2021-045AJ","EPOCH":"2025-11-27T21:17:13.022592","MEAN_MOTION":13.1554841,"ECCENTRICITY":0.000249,"INCLINATION":87.8976,"RA_OF_ASC_NODE":299.3716,"ARG_OF_PERICENTER":82.2079,"MEAN_ANOMALY":277.9334,"EPHEMERIS_TYPE":0,"CLASSIFICATION_TYPE":"U","NORAD_CAT_ID":48799,"ELEMENT_SET_NO":999,"REV_AT_EPOCH":21795,"BSTAR":0.00034013,"MEAN_MOTION_DOT":1.41e-6,"MEAN_MOTION_DDOT":0},{"OBJECT_NAME":"ONEWEB-0215","OBJECT_ID":"2021-045AK","EPOCH":"2025-11-27T20:33:51.911712","MEAN_MOTION":13.15548385,"ECCENTRICITY":0.0002561,"INCLINATION":87.8991,"RA_OF_ASC_NODE":299.3368,"ARG_OF_PERICENTER":77.7266,"MEAN_ANOMALY":282.4151,"EPHEMERIS_TYPE":0,"CLASSIFICATION_TYPE":"U","NORAD_CAT_ID":48800,"ELEMENT_SET_NO":999,"REV_AT_EPOCH":21782,"BSTAR":-0.0003198,"MEAN_MOTION_DOT":-1.08e-6,"MEAN_MOTION_DDOT":0}]
